[{"OBJECT_NAME":"SL-8 R/B","OBJECT_ID":"1979-089B","EPOCH":"2026-03-14T11:05:11.673888","MEAN_MOTION":14.4235415,"ECCENTRICITY":0.00171102,"INCLINATION":74.0667,"RA_OF_ASC_NODE":82.2084,"ARG_OF_PERICENTER":254.4139,"MEAN_ANOMALY":105.5129,"EPHEMERIS_TYPE":0,"CLASSIFICATION_TYPE":"U","NORAD_CAT_ID":11574,"ELEMENT_SET_NO":999,"REV_AT_EPOCH":43679,"BSTAR":0.00010698347,"MEAN_MOTION_DOT":3.28e-6,"MEAN_MOTION_DDOT":0},{"OBJECT_NAME":"SL-14 R/B","OBJECT_ID":"1980-005B","EPOCH":"2026-03-14T15:02:51.042624","MEAN_MOTION":14.9093674,"ECCENTRICITY":0.00165858,"INCLINATION":82.5135,"RA_OF_ASC_NODE":302.5527,"ARG_OF_PERICENTER":142.5165,"MEAN_ANOMALY":217.7214,"EPHEMERIS_TYPE":0,"CLASSIFICATION_TYPE":"U","NORAD_CAT_ID":11672,"ELEMENT_SET_NO":999,"REV_AT_EPOCH":47722,"BSTAR":6.1630247e-5,"MEAN_MOTION_DOT":6.35e-6,"MEAN_MOTION_DDOT":0},{"OBJECT_NAME":"SL-8 R/B","OBJECT_ID":"1981-003B","EPOCH":"2026-03-14T13:40:56.232192","MEAN_MOTION":15.11187823,"ECCENTRICITY":0.02616933,"INCLINATION":82.9385,"RA_OF_ASC_NODE":285.5114,"ARG_OF_PERICENTER":161.6314,"MEAN_ANOMALY":199.4595,"EPHEMERIS_TYPE":0,"CLASSIFICATION_TYPE":"U","NORAD_CAT_ID":12139,"ELEMENT_SET_NO":999,"REV_AT_EPOCH":31541,"BSTAR":0.00069104138,"MEAN_MOTION_DOT":0.00027083,"MEAN_MOTION_DDOT":0},{"OBJECT_NAME":"SL-3 R/B","OBJECT_ID":"1981-046B","EPOCH":"2026-03-14T14:04:10.082784","MEAN_MOTION":15.42132044,"ECCENTRICITY":0.00191618,"INCLINATION":81.2295,"RA_OF_ASC_NODE":283.8637,"ARG_OF_PERICENTER":5.367,"MEAN_ANOMALY":354.7774,"EPHEMERIS_TYPE":0,"CLASSIFICATION_TYPE":"U","NORAD_CAT_ID":12465,"ELEMENT_SET_NO":999,"REV_AT_EPOCH":43918,"BSTAR":0.00038074551,"MEAN_MOTION_DOT":0.00016448,"MEAN_MOTION_DDOT":0},{"OBJECT_NAME":"SL-3 R/B","OBJECT_ID":"1981-103B","EPOCH":"2026-03-14T13:45:44.161056","MEAN_MOTION":15.21445078,"ECCENTRICITY":0.00123735,"INCLINATION":81.1591,"RA_OF_ASC_NODE":207.7031,"ARG_OF_PERICENTER":268.9534,"MEAN_ANOMALY":91.028,"EPHEMERIS_TYPE":0,"CLASSIFICATION_TYPE":"U","NORAD_CAT_ID":12904,"ELEMENT_SET_NO":999,"REV_AT_EPOCH":97397,"BSTAR":0.00036408757,"MEAN_MOTION_DOT":8.22e-5,"MEAN_MOTION_DDOT":0},{"OBJECT_NAME":"SL-3 R/B","OBJECT_ID":"1982-013B","EPOCH":"2026-03-14T13:54:26.957088","MEAN_MOTION":15.22069483,"ECCENTRICITY":0.002292,"INCLINATION":81.1759,"RA_OF_ASC_NODE":155.0402,"ARG_OF_PERICENTER":160.9121,"MEAN_ANOMALY":199.2976,"EPHEMERIS_TYPE":0,"CLASSIFICATION_TYPE":"U","NORAD_CAT_ID":13068,"ELEMENT_SET_NO":999,"REV_AT_EPOCH":40509,"BSTAR":0.00025912979,"MEAN_MOTION_DOT":5.996e-5,"MEAN_MOTION_DDOT":0},{"OBJECT_NAME":"SL-3 R/B","OBJECT_ID":"1982-039B","EPOCH":"2026-03-14T13:26:35.585376","MEAN_MOTION":15.10113952,"ECCENTRICITY":0.00294999,"INCLINATION":81.1576,"RA_OF_ASC_NODE":210.3467,"ARG_OF_PERICENTER":308.5487,"MEAN_ANOMALY":51.3094,"EPHEMERIS_TYPE":0,"CLASSIFICATION_TYPE":"U","NORAD_CAT_ID":13154,"ELEMENT_SET_NO":999,"REV_AT_EPOCH":38237,"BSTAR":0.00021783155,"MEAN_MOTION_DOT":3.608e-5,"MEAN_MOTION_DDOT":0},{"OBJECT_NAME":"SL-3 R/B","OBJECT_ID":"1982-079B","EPOCH":"2026-03-14T14:07:24.913920","MEAN_MOTION":15.24881023,"ECCENTRICITY":0.00252549,"INCLINATION":81.1481,"RA_OF_ASC_NODE":187.2933,"ARG_OF_PERICENTER":148.4365,"MEAN_ANOMALY":211.839,"EPHEMERIS_TYPE":0,"CLASSIFICATION_TYPE":"U","NORAD_CAT_ID":13403,"ELEMENT_SET_NO":999,"REV_AT_EPOCH":37844,"BSTAR":0.00038219414,"MEAN_MOTION_DOT":9.617e-5,"MEAN_MOTION_DDOT":0},{"OBJECT_NAME":"SL-14 R/B","OBJECT_ID":"1982-092B","EPOCH":"2026-03-14T15:23:25.487808","MEAN_MOTION":14.86671785,"ECCENTRICITY":0.00188211,"INCLINATION":82.5685,"RA_OF_ASC_NODE":136.7682,"ARG_OF_PERICENTER":285.9489,"MEAN_ANOMALY":226.5104,"EPHEMERIS_TYPE":0,"CLASSIFICATION_TYPE":"U","NORAD_CAT_ID":13553,"ELEMENT_SET_NO":999,"REV_AT_EPOCH":32966,"BSTAR":5.5415454e-5,"MEAN_MOTION_DOT":5.18e-6,"MEAN_MOTION_DDOT":0},{"OBJECT_NAME":"SL-3 R/B","OBJECT_ID":"1983-010B","EPOCH":"2026-03-14T05:24:53.456544","MEAN_MOTION":15.46531792,"ECCENTRICITY":0.00176657,"INCLINATION":81.1059,"RA_OF_ASC_NODE":356.6865,"ARG_OF_PERICENTER":36.1797,"MEAN_ANOMALY":324.0639,"EPHEMERIS_TYPE":0,"CLASSIFICATION_TYPE":"U","NORAD_CAT_ID":13819,"ELEMENT_SET_NO":999,"REV_AT_EPOCH":35864,"BSTAR":0.00038299544,"MEAN_MOTION_DOT":0.00019187,"MEAN_MOTION_DDOT":0},{"OBJECT_NAME":"SL-3 R/B","OBJECT_ID":"1983-075B","EPOCH":"2026-03-14T13:33:53.095104","MEAN_MOTION":15.38546539,"ECCENTRICITY":0.00205814,"INCLINATION":97.6141,"RA_OF_ASC_NODE":78.3274,"ARG_OF_PERICENTER":207.3916,"MEAN_ANOMALY":152.6245,"EPHEMERIS_TYPE":0,"CLASSIFICATION_TYPE":"U","NORAD_CAT_ID":14208,"ELEMENT_SET_NO":999,"REV_AT_EPOCH":33090,"BSTAR":0.00038863679,"MEAN_MOTION_DOT":0.00014816,"MEAN_MOTION_DDOT":0},{"OBJECT_NAME":"COSMOS 1536","OBJECT_ID":"1984-013A","EPOCH":"2026-03-14T13:53:55.635360","MEAN_MOTION":15.23896288,"ECCENTRICITY":0.00124355,"INCLINATION":82.5424,"RA_OF_ASC_NODE":102.9892,"ARG_OF_PERICENTER":264.0292,"MEAN_ANOMALY":95.9528,"EPHEMERIS_TYPE":0,"CLASSIFICATION_TYPE":"U","NORAD_CAT_ID":14699,"ELEMENT_SET_NO":999,"REV_AT_EPOCH":27336,"BSTAR":0.00034209659,"MEAN_MOTION_DOT":8.308e-5,"MEAN_MOTION_DDOT":0},{"OBJECT_NAME":"SL-14 R/B","OBJECT_ID":"1984-027B","EPOCH":"2026-03-14T11:22:41.420064","MEAN_MOTION":14.8598216,"ECCENTRICITY":0.00169785,"INCLINATION":82.5392,"RA_OF_ASC_NODE":240.5243,"ARG_OF_PERICENTER":321.4156,"MEAN_ANOMALY":38.5846,"EPHEMERIS_TYPE":0,"CLASSIFICATION_TYPE":"U","NORAD_CAT_ID":14820,"ELEMENT_SET_NO":999,"REV_AT_EPOCH":24834,"BSTAR":6.635418e-5,"MEAN_MOTION_DOT":6.05e-6,"MEAN_MOTION_DDOT":0},{"OBJECT_NAME":"SL-8 R/B","OBJECT_ID":"1985-006B","EPOCH":"2026-03-14T14:21:50.211648","MEAN_MOTION":14.37787266,"ECCENTRICITY":0.00182369,"INCLINATION":74.0432,"RA_OF_ASC_NODE":252.1146,"ARG_OF_PERICENTER":168.6544,"MEAN_ANOMALY":254.4748,"EPHEMERIS_TYPE":0,"CLASSIFICATION_TYPE":"U","NORAD_CAT_ID":15483,"ELEMENT_SET_NO":999,"REV_AT_EPOCH":15473,"BSTAR":0.00014524293,"MEAN_MOTION_DOT":4.12e-6,"MEAN_MOTION_DDOT":0},{"OBJECT_NAME":"SL-12 R/B(2)","OBJECT_ID":"1985-042D","EPOCH":"2026-03-14T11:42:47.187360","MEAN_MOTION":14.21983843,"ECCENTRICITY":0.00330622,"INCLINATION":71.1063,"RA_OF_ASC_NODE":77.5901,"ARG_OF_PERICENTER":120.234,"MEAN_ANOMALY":353.9115,"EPHEMERIS_TYPE":0,"CLASSIFICATION_TYPE":"U","NORAD_CAT_ID":15772,"ELEMENT_SET_NO":999,"REV_AT_EPOCH":11507,"BSTAR":9.5348158e-5,"MEAN_MOTION_DOT":1.64e-6,"MEAN_MOTION_DDOT":0},{"OBJECT_NAME":"SL-14 R/B","OBJECT_ID":"1985-069B","EPOCH":"2026-03-14T14:12:33.682464","MEAN_MOTION":14.86439745,"ECCENTRICITY":0.00189195,"INCLINATION":82.5293,"RA_OF_ASC_NODE":20.3239,"ARG_OF_PERICENTER":171.3707,"MEAN_ANOMALY":188.7839,"EPHEMERIS_TYPE":0,"CLASSIFICATION_TYPE":"U","NORAD_CAT_ID":15945,"ELEMENT_SET_NO":999,"REV_AT_EPOCH":17356,"BSTAR":7.090588e-5,"MEAN_MOTION_DOT":6.52e-6,"MEAN_MOTION_DDOT":0},{"OBJECT_NAME":"SL-16 R/B","OBJECT_ID":"1985-097B","EPOCH":"2026-03-14T14:15:48.434976","MEAN_MOTION":14.16598173,"ECCENTRICITY":0.00097701,"INCLINATION":71.0018,"RA_OF_ASC_NODE":130.2292,"ARG_OF_PERICENTER":253.6938,"MEAN_ANOMALY":258.5487,"EPHEMERIS_TYPE":0,"CLASSIFICATION_TYPE":"U","NORAD_CAT_ID":16182,"ELEMENT_SET_NO":999,"REV_AT_EPOCH":8792,"BSTAR":2.2352985e-5,"MEAN_MOTION_DOT":-3.0e-8,"MEAN_MOTION_DDOT":0}]
