SL-8 R/B                
1 11574U 79089B   26073.46194067  .00000328  00000+0  10698-3 0  9995
2 11574  74.0667  82.2084 0017110 254.4139 105.5129 14.42354150436793
SL-14 R/B               
1 11672U 80005B   26073.62697966  .00000635  00000+0  61630-4 0  9992
2 11672  82.5135 302.5527 0016585 142.5165 217.7214 14.90936740477225
SL-8 R/B                
1 12139U 81003B   26073.57009528  .00027083  00000+0  69104-3 0  9994
2 12139  82.9385 285.5114 0261693 161.6314 199.4595 15.11187823315411
SL-3 R/B                
1 12465U 81046B   26073.58622781  .00016448  00000+0  38075-3 0  9992
2 12465  81.2295 283.8637 0019161   5.3670 354.7774 15.42132044439181
SL-3 R/B                
1 12904U 81103B   26073.57342779  .00008220  00000+0  36409-3 0  9997
2 12904  81.1591 207.7031 0012373 268.9534  91.0280 15.21445078973978
SL-3 R/B                
1 13068U 82013B   26073.57947867  .00005996  00000+0  25913-3 0  9994
2 13068  81.1759 155.0402 0022920 160.9121 199.2976 15.22069483405094
SL-3 R/B                
1 13154U 82039B   26073.56013409  .00003608  00000+0  21783-3 0  9992
2 13154  81.1576 210.3467 0029499 308.5487  51.3094 15.10113952382378
SL-3 R/B                
1 13403U 82079B   26073.58848280  .00009617  00000+0  38219-3 0  9996
2 13403  81.1481 187.2933 0025254 148.4365 211.8390 15.24881023378442
SL-14 R/B               
1 13553U 82092B   26073.64126722  .00000518  00000+0  55415-4 0  9993
2 13553  82.5685 136.7682 0018821 285.9489 226.5104 14.86671785329660
SL-3 R/B                
1 13819U 83010B   26073.22561871  .00019187  00000+0  38300-3 0  9996
2 13819  81.1059 356.6865 0017665  36.1797 324.0639 15.46531792358641
SL-3 R/B                
1 14208U 83075B   26073.56519786  .00014816  00000+0  38864-3 0  9994
2 14208  97.6141  78.3274 0020581 207.3916 152.6245 15.38546539330909
COSMOS 1536             
1 14699U 84013A   26073.57911615  .00008308  00000+0  34210-3 0  9999
2 14699  82.5424 102.9892 0012435 264.0292  95.9528 15.23896288273368
SL-14 R/B               
1 14820U 84027B   26073.47409051  .00000605  00000+0  66354-4 0  9992
2 14820  82.5392 240.5243 0016978 321.4156  38.5846 14.85982160248348
SL-8 R/B                
1 15483U 85006B   26073.59849782  .00000412  00000+0  14524-3 0  9995
2 15483  74.0432 252.1146 0018236 168.6544 254.4748 14.37787266154733
SL-12 R/B(2)            
1 15772U 85042D   26073.48804615  .00000164  00000+0  95348-4 0  9998
2 15772  71.1063  77.5901 0033062 120.2340 353.9115 14.21983843115071
SL-14 R/B               
1 15945U 85069B   26073.59205651  .00000652  00000+0  70906-4 0  9991
2 15945  82.5293  20.3239 0018919 171.3707 188.7839 14.86439745173565
SL-16 R/B               
1 16182U 85097B   26073.59431059 -.00000003  00000+0  22353-4 0  9993
2 16182  71.0018 130.2292 0009770 253.6938 258.5487 14.16598173 87925
